[{"OBJECT_NAME":"SPAWAR-CAL-O","OBJECT_ID":"2018-099J","EPOCH":"2026-03-09T17:45:15.080832","MEAN_MOTION":15.31356755,"ECCENTRICITY":0.00072392,"INCLINATION":97.4452,"RA_OF_ASC_NODE":132.0993,"ARG_OF_PERICENTER":285.067,"MEAN_ANOMALY":74.977,"EPHEMERIS_TYPE":0,"CLASSIFICATION_TYPE":"U","NORAD_CAT_ID":43766,"ELEMENT_SET_NO":999,"REV_AT_EPOCH":39828,"BSTAR":0.00069663212,"MEAN_MOTION_DOT":0.00021069,"MEAN_MOTION_DDOT":0},{"OBJECT_NAME":"STARLINK-33591","OBJECT_ID":"2025-015V","EPOCH":"2026-03-09T23:20:48.728544","MEAN_MOTION":15.30193937,"ECCENTRICITY":9.87e-5,"INCLINATION":53.1599,"RA_OF_ASC_NODE":321.1982,"ARG_OF_PERICENTER":95.3089,"MEAN_ANOMALY":264.8025,"EPHEMERIS_TYPE":0,"CLASSIFICATION_TYPE":"U","NORAD_CAT_ID":62777,"ELEMENT_SET_NO":999,"REV_AT_EPOCH":6452,"BSTAR":0.00048767458,"MEAN_MOTION_DOT":0.00014109,"MEAN_MOTION_DDOT":0}]
